{
  "type": "FeatureCollection",
  "features": [
    {
      "type": "Feature",
      "properties": {
        "norad_id": 30699,
        "name": "FENGYUN 1C DEB",
        "group": "fengyun-1c-debris",
        "lat": -57.70074416415661,
        "lon": -100.33018847444502,
        "alt_km": 741.7016417741297,
        "timestamp": "2025-12-02T06:27:53.291609+00:00",
        "meta_object_name": "FENGYUN 1C DEB",
        "meta_object_id": "1999-025ARH",
        "meta_epoch": "2025-12-01T06:07:27.013728",
        "meta_mean_motion": 14.46626942,
        "meta_eccentricity": 0.000363,
        "meta_inclination": 99.3114,
        "meta_ra_of_asc_node": 93.5988,
        "meta_arg_of_pericenter": 282.3894,
        "meta_mean_anomaly": 77.6889,
        "meta_ephemeris_type": 0,
        "meta_classification_type": "U",
        "meta_norad_cat_id": 30699,
        "meta_element_set_no": 999,
        "meta_rev_at_epoch": 97447,
        "meta_bstar": 0.0028611,
        "meta_mean_motion_dot": 0.0001029,
        "meta_mean_motion_ddot": 0,
        "tle_line1": "1 30699U 99025ARH 25335.25517377  .00010290  00000+0  28611-2 0  9998",
        "tle_line2": "2 30699  99.3114  93.5988 0003630 282.3894  77.6889 14.46626942974476"
      },
      "geometry": {
        "type": "Point",
        "coordinates": [
          -100.33018847444502,
          -57.70074416415661
        ]
      }
    },
    {
      "type": "Feature",
      "properties": {
        "norad_id": 30700,
        "name": "FENGYUN 1C DEB",
        "group": "fengyun-1c-debris",
        "lat": 61.04541275486845,
        "lon": -159.3522501285972,
        "alt_km": 771.3588547431527,
        "timestamp": "2025-12-02T06:27:53.291619+00:00",
        "meta_object_name": "FENGYUN 1C DEB",
        "meta_object_id": "1999-025ARJ",
        "meta_epoch": "2025-12-01T07:59:03.585696",
        "meta_mean_motion": 14.23778174,
        "meta_eccentricity": 0.00865861,
        "meta_inclination": 98.543,
        "meta_ra_of_asc_node": 3.9734,
        "meta_arg_of_pericenter": 176.3473,
        "meta_mean_anomaly": 183.8357,
        "meta_ephemeris_type": 0,
        "meta_classification_type": "U",
        "meta_norad_cat_id": 30700,
        "meta_element_set_no": 999,
        "meta_rev_at_epoch": 97407,
        "meta_bstar": 0.00021564367,
        "meta_mean_motion_dot": 4.7e-06,
        "meta_mean_motion_ddot": 0,
        "tle_line1": "1 30700U 99025ARJ 25335.33268039  .00000470  00000+0  21564-3 0  9998",
        "tle_line2": "2 30700  98.5430   3.9734 0086586 176.3473 183.8357 14.23778174974077"
      },
      "geometry": {
        "type": "Point",
        "coordinates": [
          -159.3522501285972,
          61.04541275486845
        ]
      }
    },
    {
      "type": "Feature",
      "properties": {
        "norad_id": 30701,
        "name": "FENGYUN 1C DEB",
        "group": "fengyun-1c-debris",
        "lat": 35.13844586152346,
        "lon": -155.97331916265267,
        "alt_km": 818.5377472623677,
        "timestamp": "2025-12-02T06:27:53.291628+00:00",
        "meta_object_name": "FENGYUN 1C DEB",
        "meta_object_id": "1999-025ARK",
        "meta_epoch": "2025-12-01T01:12:38.210400",
        "meta_mean_motion": 14.13933094,
        "meta_eccentricity": 0.00354426,
        "meta_inclination": 98.72,
        "meta_ra_of_asc_node": 16.6366,
        "meta_arg_of_pericenter": 135.19,
        "meta_mean_anomaly": 287.9749,
        "meta_ephemeris_type": 0,
        "meta_classification_type": "U",
        "meta_norad_cat_id": 30701,
        "meta_element_set_no": 999,
        "meta_rev_at_epoch": 96954,
        "meta_bstar": 1.7382551e-05,
        "meta_mean_motion_dot": -1e-07,
        "meta_mean_motion_ddot": 0,
        "tle_line1": "1 30701U 99025ARK 25335.05044225 -.00000010  00000+0  17383-4 0  9993",
        "tle_line2": "2 30701  98.7200  16.6366 0035442 135.1900 287.9749 14.13933094969540"
      },
      "geometry": {
        "type": "Point",
        "coordinates": [
          -155.97331916265267,
          35.13844586152346
        ]
      }
    },
    {
      "type": "Feature",
      "properties": {
        "norad_id": 30702,
        "name": "FENGYUN 1C DEB",
        "group": "fengyun-1c-debris",
        "lat": 60.672626867520506,
        "lon": -167.56789425946005,
        "alt_km": 916.8643351866722,
        "timestamp": "2025-12-02T06:27:53.291638+00:00",
        "meta_object_name": "FENGYUN 1C DEB",
        "meta_object_id": "1999-025ARL",
        "meta_epoch": "2025-11-30T21:57:24.157152",
        "meta_mean_motion": 14.03549713,
        "meta_eccentricity": 0.00684344,
        "meta_inclination": 98.771,
        "meta_ra_of_asc_node": 355.1753,
        "meta_arg_of_pericenter": 335.4401,
        "meta_mean_anomaly": 141.9443,
        "meta_ephemeris_type": 0,
        "meta_classification_type": "U",
        "meta_norad_cat_id": 30702,
        "meta_element_set_no": 999,
        "meta_rev_at_epoch": 95996,
        "meta_bstar": 0.00066588754,
        "meta_mean_motion_dot": 1.023e-05,
        "meta_mean_motion_ddot": 0,
        "tle_line1": "1 30702U 99025ARL 25334.91486293  .00001023  00000+0  66589-3 0  9998",
        "tle_line2": "2 30702  98.7710 355.1753 0068434 335.4401 141.9443 14.03549713959961"
      },
      "geometry": {
        "type": "Point",
        "coordinates": [
          -167.56789425946005,
          60.672626867520506
        ]
      }
    },
    {
      "type": "Feature",
      "properties": {
        "norad_id": 30703,
        "name": "FENGYUN 1C DEB",
        "group": "fengyun-1c-debris",
        "lat": -11.728691028835394,
        "lon": -37.11741818567777,
        "alt_km": 755.633861898732,
        "timestamp": "2025-12-02T06:27:53.291648+00:00",
        "meta_object_name": "FENGYUN 1C DEB",
        "meta_object_id": "1999-025ARM",
        "meta_epoch": "2025-12-01T17:49:39.353376",
        "meta_mean_motion": 14.19223802,
        "meta_eccentricity": 0.0118416,
        "meta_inclination": 99.141,
        "meta_ra_of_asc_node": 320.4239,
        "meta_arg_of_pericenter": 323.309,
        "meta_mean_anomaly": 215.5672,
        "meta_ephemeris_type": 0,
        "meta_classification_type": "U",
        "meta_norad_cat_id": 30703,
        "meta_element_set_no": 999,
        "meta_rev_at_epoch": 96384,
        "meta_bstar": 0.0013838,
        "meta_mean_motion_dot": 3.063e-05,
        "meta_mean_motion_ddot": 0,
        "tle_line1": "1 30703U 99025ARM 25335.74281659  .00003063  00000+0  13838-2 0  9994",
        "tle_line2": "2 30703  99.1410 320.4239 0118416 323.3090 215.5672 14.19223802963843"
      },
      "geometry": {
        "type": "Point",
        "coordinates": [
          -37.11741818567777,
          -11.728691028835394
        ]
      }
    },
    {
      "type": "Feature",
      "properties": {
        "norad_id": 30704,
        "name": "FENGYUN 1C DEB",
        "group": "fengyun-1c-debris",
        "lat": -40.084741425161134,
        "lon": 147.74025412186975,
        "alt_km": 894.6924604219812,
        "timestamp": "2025-12-02T06:27:53.291658+00:00",
        "meta_object_name": "FENGYUN 1C DEB",
        "meta_object_id": "1999-025ARN",
        "meta_epoch": "2025-12-01T12:52:10.755840",
        "meta_mean_motion": 14.02026776,
        "meta_eccentricity": 0.00816308,
        "meta_inclination": 98.8706,
        "meta_ra_of_asc_node": 334.5795,
        "meta_arg_of_pericenter": 130.7372,
        "meta_mean_anomaly": 350.6138,
        "meta_ephemeris_type": 0,
        "meta_classification_type": "U",
        "meta_norad_cat_id": 30704,
        "meta_element_set_no": 999,
        "meta_rev_at_epoch": 95954,
        "meta_bstar": 0.00042596544,
        "meta_mean_motion_dot": 6.27e-06,
        "meta_mean_motion_ddot": 0,
        "tle_line1": "1 30704U 99025ARN 25335.53623560  .00000627  00000+0  42597-3 0  9991",
        "tle_line2": "2 30704  98.8706 334.5795 0081630 130.7372 350.6138 14.02026776959544"
      },
      "geometry": {
        "type": "Point",
        "coordinates": [
          147.74025412186975,
          -40.084741425161134
        ]
      }
    },
    {
      "type": "Feature",
      "properties": {
        "norad_id": 30705,
        "name": "FENGYUN 1C DEB",
        "group": "fengyun-1c-debris",
        "lat": -25.201911100955375,
        "lon": 83.27001677233683,
        "alt_km": 834.826218866132,
        "timestamp": "2025-12-02T06:27:53.291668+00:00",
        "meta_object_name": "FENGYUN 1C DEB",
        "meta_object_id": "1999-025ARP",
        "meta_epoch": "2025-12-01T13:16:49.578240",
        "meta_mean_motion": 13.81228938,
        "meta_eccentricity": 0.01984251,
        "meta_inclination": 102.1809,
        "meta_ra_of_asc_node": 76.5148,
        "meta_arg_of_pericenter": 308.745,
        "meta_mean_anomaly": 65.8744,
        "meta_ephemeris_type": 0,
        "meta_classification_type": "U",
        "meta_norad_cat_id": 30705,
        "meta_element_set_no": 999,
        "meta_rev_at_epoch": 93855,
        "meta_bstar": 0.0022414452,
        "meta_mean_motion_dot": 2.692e-05,
        "meta_mean_motion_ddot": 0,
        "tle_line1": "1 30705U 99025ARP 25335.55335160  .00002692  00000+0  22414-2 0  9999",
        "tle_line2": "2 30705 102.1809  76.5148 0198425 308.7450  65.8744 13.81228938938554"
      },
      "geometry": {
        "type": "Point",
        "coordinates": [
          83.27001677233683,
          -25.201911100955375
        ]
      }
    }
  ]
}